{"type": "FeatureCollection", "features": [{"type": "Feature", "properties": {"norad_id": 22490, "name": "SCD 1", "group": "resource", "lat": 13.354870064107182, "lon": 13.246222051128361, "alt_km": 733.6163187083203, "timestamp": "2025-12-21T14:40:47.567044+00:00", "meta": {"OBJECT_NAME": "SCD 1", "OBJECT_ID": "1993-009B", "EPOCH": "2025-12-20T20:00:20.608704", "MEAN_MOTION": 14.46004096, "ECCENTRICITY": 0.0042122, "INCLINATION": 24.9682, "RA_OF_ASC_NODE": 228.7229, "ARG_OF_PERICENTER": 50.6528, "MEAN_ANOMALY": 356.9599, "EPHEMERIS_TYPE": 0, "CLASSIFICATION_TYPE": "U", "NORAD_CAT_ID": 22490, "ELEMENT_SET_NO": 999, "REV_AT_EPOCH": 73527, "BSTAR": 6.2642e-05, "MEAN_MOTION_DOT": 4.14e-06, "MEAN_MOTION_DDOT": 0}, "tle": {"line1": "1 22490U 93009B   25354.83357186  .00000414  00000+0  62642-4 0  9990", "line2": "2 22490  24.9682 228.7229 0042122  50.6528 356.9599 14.46004096735273"}}, "geometry": {"type": "Point", "coordinates": [13.246222051128361, 13.354870064107182]}}, {"type": "Feature", "properties": {"norad_id": 25397, "name": "TECHSAT 1B (GO-32)", "group": "resource", "lat": -78.82899476564465, "lon": 32.33881139215564, "alt_km": 818.6423384648206, "timestamp": "2025-12-21T14:40:47.567080+00:00", "meta": {"OBJECT_NAME": "TECHSAT 1B (GO-32)", "OBJECT_ID": "1998-043D", "EPOCH": "2025-12-20T12:05:47.212224", "MEAN_MOTION": 14.24379082, "ECCENTRICITY": 0.0001814, "INCLINATION": 98.9927, "RA_OF_ASC_NODE": 337.8955, "ARG_OF_PERICENTER": 45.0313, "MEAN_ANOMALY": 315.1012, "EPHEMERIS_TYPE": 0, "CLASSIFICATION_TYPE": "U", "NORAD_CAT_ID": 25397, "ELEMENT_SET_NO": 999, "REV_AT_EPOCH": 42589, "BSTAR": 3.7448e-05, "MEAN_MOTION_DOT": 4e-07, "MEAN_MOTION_DDOT": 0}, "tle": {"line1": "1 25397U 98043D   25354.50401866  .00000040  00000+0  37448-4 0  9992", "line2": "2 25397  98.9927 337.8955 0001814  45.0313 315.1012 14.24379082425893"}}, "geometry": {"type": "Point", "coordinates": [32.33881139215564, -78.82899476564465]}}, {"type": "Feature", "properties": {"norad_id": 25504, "name": "SCD 2", "group": "resource", "lat": 8.294132631889909, "lon": -111.04109117810079, "alt_km": 742.1208749936068, "timestamp": "2025-12-21T14:40:47.567097+00:00", "meta": {"OBJECT_NAME": "SCD 2", "OBJECT_ID": "1998-060A", "EPOCH": "2025-12-20T14:51:05.311008", "MEAN_MOTION": 14.45427239, "ECCENTRICITY": 0.0016975, "INCLINATION": 24.9946, "RA_OF_ASC_NODE": 93.3121, "ARG_OF_PERICENTER": 36.8974, "MEAN_ANOMALY": 346.0798, "EPHEMERIS_TYPE": 0, "CLASSIFICATION_TYPE": "U", "NORAD_CAT_ID": 25504, "ELEMENT_SET_NO": 999, "REV_AT_EPOCH": 43446, "BSTAR": 4.6833e-05, "MEAN_MOTION_DOT": 3.49e-06, "MEAN_MOTION_DDOT": 0}, "tle": {"line1": "1 25504U 98060A   25354.61881147  .00000349  00000+0  46833-4 0  9997", "line2": "2 25504  24.9946  93.3121 0016975  36.8974 346.0798 14.45427239434465"}}, "geometry": {"type": "Point", "coordinates": [-111.04109117810079, 8.294132631889909]}}, {"type": "Feature", "properties": {"norad_id": 25757, "name": "DLR-TUBSAT", "group": "resource", "lat": -51.906068960099525, "lon": -8.39479682928262, "alt_km": 732.787865209968, "timestamp": "2025-12-21T14:40:47.567111+00:00", "meta": {"OBJECT_NAME": "DLR-TUBSAT", "OBJECT_ID": "1999-029B", "EPOCH": "2025-12-17T13:22:10.787520", "MEAN_MOTION": 14.52359578, "ECCENTRICITY": 0.00141996, "INCLINATION": 98.6566, "RA_OF_ASC_NODE": 336.2196, "ARG_OF_PERICENTER": 177.8976, "MEAN_ANOMALY": 182.2281, "EPHEMERIS_TYPE": 0, "CLASSIFICATION_TYPE": "U", "NORAD_CAT_ID": 25757, "ELEMENT_SET_NO": 999, "REV_AT_EPOCH": 40688, "BSTAR": 3.7650132e-05, "MEAN_MOTION_DOT": 1.05e-06, "MEAN_MOTION_DDOT": 0}, "tle": {"line1": "1 25757U 99029B   25351.55706930  .00000105  00000+0  37650-4 0  9996", "line2": "2 25757  98.6566 336.2196 0014199 177.8976 182.2281 14.52359578406886"}}, "geometry": {"type": "Point", "coordinates": [-8.39479682928262, -51.906068960099525]}}, {"type": "Feature", "properties": {"norad_id": 25994, "name": "TERRA", "group": "resource", "lat": -75.22258201257401, "lon": 79.06646058223114, "alt_km": 699.7902498507292, "timestamp": "2025-12-21T14:40:47.567124+00:00", "meta": {"OBJECT_NAME": "TERRA", "OBJECT_ID": "1999-068A", "EPOCH": "2025-12-21T03:35:17.460096", "MEAN_MOTION": 14.60910409, "ECCENTRICITY": 0.00035203, "INCLINATION": 97.9736, "RA_OF_ASC_NODE": 46.5249, "ARG_OF_PERICENTER": 77.7738, "MEAN_ANOMALY": 295.6069, "EPHEMERIS_TYPE": 0, "CLASSIFICATION_TYPE": "U", "NORAD_CAT_ID": 25994, "ELEMENT_SET_NO": 999, "REV_AT_EPOCH": 38361, "BSTAR": 7.6173262e-05, "MEAN_MOTION_DOT": 3.28e-06, "MEAN_MOTION_DDOT": 0}, "tle": {"line1": "1 25994U 99068A   25355.14950764  .00000328  00000+0  76173-4 0  9997", "line2": "2 25994  97.9736  46.5249 0003520  77.7738 295.6069 14.60910409383613"}}, "geometry": {"type": "Point", "coordinates": [79.06646058223114, -75.22258201257401]}}, {"type": "Feature", "properties": {"norad_id": 27004, "name": "MAROC-TUBSAT", "group": "resource", "lat": -76.83559901788963, "lon": -63.37479312745247, "alt_km": 993.0483944184152, "timestamp": "2025-12-21T14:40:47.567136+00:00", "meta": {"OBJECT_NAME": "MAROC-TUBSAT", "OBJECT_ID": "2001-056D", "EPOCH": "2025-12-21T01:41:16.894752", "MEAN_MOTION": 13.70253304, "ECCENTRICITY": 0.00191861, "INCLINATION": 99.7915, "RA_OF_ASC_NODE": 163.6612, "ARG_OF_PERICENTER": 238.0257, "MEAN_ANOMALY": 234.0946, "EPHEMERIS_TYPE": 0, "CLASSIFICATION_TYPE": "U", "NORAD_CAT_ID": 27004, "ELEMENT_SET_NO": 999, "REV_AT_EPOCH": 20179, "BSTAR": 1.6453953e-05, "MEAN_MOTION_DOT": -3.2e-07, "MEAN_MOTION_DDOT": 0}, "tle": {"line1": "1 27004U 01056D   25355.07033443 -.00000032  00000+0  16454-4 0  9998", "line2": "2 27004  99.7915 163.6612 0019186 238.0257 234.0946 13.70253304201797"}}, "geometry": {"type": "Point", "coordinates": [-63.37479312745247, -76.83559901788963]}}, {"type": "Feature", "properties": {"norad_id": 27424, "name": "AQUA", "group": "resource", "lat": -7.062012531928379, "lon": 135.5857529876738, "alt_km": 690.9559670643584, "timestamp": "2025-12-21T14:40:47.567148+00:00", "meta": {"OBJECT_NAME": "AQUA", "OBJECT_ID": "2002-022A", "EPOCH": "2025-12-20T21:44:41.124192", "MEAN_MOTION": 14.61819722, "ECCENTRICITY": 0.0001418, "INCLINATION": 98.4047, "RA_OF_ASC_NODE": 315.9181, "ARG_OF_PERICENTER": 110.6839, "MEAN_ANOMALY": 325.0971, "EPHEMERIS_TYPE": 0, "CLASSIFICATION_TYPE": "U", "NORAD_CAT_ID": 27424, "ELEMENT_SET_NO": 999, "REV_AT_EPOCH": 25722, "BSTAR": 0.00013306, "MEAN_MOTION_DOT": 6.15e-06, "MEAN_MOTION_DDOT": 0}, "tle": {"line1": "1 27424U 02022A   25354.90603153  .00000615  00000+0  13306-3 0  9998", "line2": "2 27424  98.4047 315.9181 0001418 110.6839 325.0971 14.61819722257229"}}, "geometry": {"type": "Point", "coordinates": [135.5857529876738, -7.062012531928379]}}, {"type": "Feature", "properties": {"norad_id": 28051, "name": "IRS-P6 (RESOURCESAT-1)", "group": "resource", "lat": -48.84247496799419, "lon": 45.12247358424844, "alt_km": 820.6973963039545, "timestamp": "2025-12-21T14:40:47.567159+00:00", "meta": {"OBJECT_NAME": "IRS-P6 (RESOURCESAT-1)", "OBJECT_ID": "2003-046A", "EPOCH": "2025-12-21T06:58:23.896704", "MEAN_MOTION": 14.36078272, "ECCENTRICITY": 0.00647185, "INCLINATION": 98.2168, "RA_OF_ASC_NODE": 35.3015, "ARG_OF_PERICENTER": 155.0948, "MEAN_ANOMALY": 296.0383, "EPHEMERIS_TYPE": 0, "CLASSIFICATION_TYPE": "U", "NORAD_CAT_ID": 28051, "ELEMENT_SET_NO": 999, "REV_AT_EPOCH": 15499, "BSTAR": 5.7809715e-05, "MEAN_MOTION_DOT": 1.32e-06, "MEAN_MOTION_DDOT": 0}, "tle": {"line1": "1 28051U 03046A   25355.29055436  .00000132  00000+0  57810-4 0  9993", "line2": "2 28051  98.2168  35.3015 0064718 155.0948 296.0383 14.36078272154996"}}, "geometry": {"type": "Point", "coordinates": [45.12247358424844, -48.84247496799419]}}, {"type": "Feature", "properties": {"norad_id": 28220, "name": "SHIYAN-1 (SY-1)", "group": "resource", "lat": -62.538181715192806, "lon": -137.8068896162016, "alt_km": 485.4282021501058, "timestamp": "2025-12-21T14:40:47.567171+00:00", "meta": {"OBJECT_NAME": "SHIYAN-1 (SY-1)", "OBJECT_ID": "2004-012A", "EPOCH": "2025-12-21T04:11:20.401152", "MEAN_MOTION": 15.28343782, "ECCENTRICITY": 0.00052177, "INCLINATION": 97.8926, "RA_OF_ASC_NODE": 57.2116, "ARG_OF_PERICENTER": 290.4683, "MEAN_ANOMALY": 69.5995, "EPHEMERIS_TYPE": 0, "CLASSIFICATION_TYPE": "U", "NORAD_CAT_ID": 28220, "ELEMENT_SET_NO": 999, "REV_AT_EPOCH": 18385, "BSTAR": 0.00033294584, "MEAN_MOTION_DOT": 9.113e-05, "MEAN_MOTION_DDOT": 0}, "tle": {"line1": "1 28220U 04012A   25355.17454168  .00009113  00000+0  33295-3 0  9995", "line2": "2 28220  97.8926  57.2116 0005217 290.4683  69.5995 15.28343782183857"}}, "geometry": {"type": "Point", "coordinates": [-137.8068896162016, -62.538181715192806]}}, {"type": "Feature", "properties": {"norad_id": 28376, "name": "AURA", "group": "resource", "lat": -67.75933280270091, "lon": -33.15188784235731, "alt_km": 698.2259717934776, "timestamp": "2025-12-21T14:40:47.567183+00:00", "meta": {"OBJECT_NAME": "AURA", "OBJECT_ID": "2004-026A", "EPOCH": "2025-12-21T05:08:03.679872", "MEAN_MOTION": 14.60964607, "ECCENTRICITY": 0.00013824, "INCLINATION": 98.3197, "RA_OF_ASC_NODE": 305.4803, "ARG_OF_PERICENTER": 92.551, "MEAN_ANOMALY": 267.5848, "EPHEMERIS_TYPE": 0, "CLASSIFICATION_TYPE": "U", "NORAD_CAT_ID": 28376, "ELEMENT_SET_NO": 999, "REV_AT_EPOCH": 14022, "BSTAR": 0.00017508092, "MEAN_MOTION_DOT": 8.1e-06, "MEAN_MOTION_DDOT": 0}, "tle": {"line1": "1 28376U 04026A   25355.21393148  .00000810  00000+0  17508-3 0  9991", "line2": "2 28376  98.3197 305.4803 0001382  92.5510 267.5848 14.60964607140226"}}, "geometry": {"type": "Point", "coordinates": [-33.15188784235731, -67.75933280270091]}}]}